SL-14 R/B               
1 16496U 86006B   26071.01047511  .00000746  00000+0  76876-4 0  9995
2 16496  82.5236 257.5523 0075056 264.9426  94.3220 14.86818268149555
COSMOS 1743             
1 16719U 86034A   26071.01749648  .00034559  00000+0  44742-3 0  9999
2 16719  82.5293  71.3874 0001486 269.8959  90.2126 15.58731417180610
SL-14 R/B               
1 16792U 86046B   26071.29946215  .00000593  00000+0  65488-4 0  9994
2 16792  82.4782  77.7149 0022128 216.3300 143.6415 14.85593292126790
SL-14 R/B               
1 16882U 86055B   26071.22811698  .00000507  00000+0  55590-4 0  9991
2 16882  82.5196 124.2882 0017968 327.8325  96.3037 14.85645237119741
AJISAI (EGS)            
1 16908U 86061A   26071.28948778 -.00000098  00000+0 -31333-5 0  9990
2 16908  50.0081  85.3528 0011278 293.7322 154.3077 12.44515659468320
SL-14 R/B               
1 17567U 87024B   26071.12991942  .00000502  00000+0  54415-4 0  9999
2 17567  82.5245  90.4695 0016734 251.1218 108.8185 14.86134375 88490
COSMOS 1833             
1 17589U 87027A   26071.12554540 -.00000189  00000+0 -75332-4 0  9999
2 17589  70.9219 320.8998 0024150 211.1193 148.8499 14.13054205 10660
SL-16 R/B               
1 17590U 87027B   26071.30391235  .00000027  00000+0  37204-4 0  9996
2 17590  70.9996 270.9859 0003257 137.4369 222.7008 14.17166440 15713
SL-14 R/B               
1 17912U 87038B   26071.12614964  .00000495  00000+0  54537-4 0  9990
2 17912  82.4996 294.5124 0019868 152.6537 207.5730 14.85371680 79595
COSMOS 1844             
1 17973U 87041A   26071.29956093 -.00000121  00000+0 -37886-4 0  9997
2 17973  70.9001  28.6699 0030162  13.9614 346.2335 14.14551736  3952
SL-14 R/B               
1 18153U 87055B   26071.23734244  .00000653  00000+0  72357-4 0  9999
2 18153  82.5031 346.6311 0020950   9.5666 350.5944 14.85632925 70317
COSMOS 1867             
1 18187U 87060A   26071.02614822 -.00000031  00000+0  26030-4 0  9996
2 18187  65.0109 300.1626 0014520 278.8175  81.1265 14.31503439 20273
SL-14 R/B               
1 18749U 88001B   26071.30019065  .00000701  00000+0  78268-4 0  9998
2 18749  82.5156 192.9053 0016989 226.4975 133.4830 14.85531575 42412
COSMOS 1933             
1 18958U 88020A   26070.96542221  .00005303  00000+0  25936-3 0  9993
2 18958  82.5104 248.6596 0004130 173.7359 186.3927 15.18007342 50570
SL-3 R/B                
1 19046U 88032B   26071.23427417  .00006311  00000+0  29444-3 0  9993
2 19046  97.5195  54.4764 0024622 222.0952 137.8392 15.19942924 52495
SL-16 R/B               
1 19120U 88039B   26071.30557510  .00000114  00000+0  76770-4 0  9999
2 19120  71.0137  63.0157 0022932 330.5781  29.4051 14.19615866958753
COSMOS 1953             
1 19210U 88050A   26071.30963646  .00008844  00000+0  31630-3 0  9996
2 19210  82.5102 155.6127 0012542 114.4018 245.8532 15.28576123 38182
