[{"OBJECT_NAME":"SL-14 R/B","OBJECT_ID":"1986-006B","EPOCH":"2026-03-12T00:15:05.049504","MEAN_MOTION":14.86818268,"ECCENTRICITY":0.00750568,"INCLINATION":82.5236,"RA_OF_ASC_NODE":257.5523,"ARG_OF_PERICENTER":264.9426,"MEAN_ANOMALY":94.322,"EPHEMERIS_TYPE":0,"CLASSIFICATION_TYPE":"U","NORAD_CAT_ID":16496,"ELEMENT_SET_NO":999,"REV_AT_EPOCH":14955,"BSTAR":7.6875886e-5,"MEAN_MOTION_DOT":7.46e-6,"MEAN_MOTION_DDOT":0},{"OBJECT_NAME":"COSMOS 1743","OBJECT_ID":"1986-034A","EPOCH":"2026-03-12T00:25:11.695872","MEAN_MOTION":15.58731417,"ECCENTRICITY":0.00014861,"INCLINATION":82.5293,"RA_OF_ASC_NODE":71.3874,"ARG_OF_PERICENTER":269.8959,"MEAN_ANOMALY":90.2126,"EPHEMERIS_TYPE":0,"CLASSIFICATION_TYPE":"U","NORAD_CAT_ID":16719,"ELEMENT_SET_NO":999,"REV_AT_EPOCH":18061,"BSTAR":0.00044741719,"MEAN_MOTION_DOT":0.00034559,"MEAN_MOTION_DDOT":0},{"OBJECT_NAME":"SL-14 R/B","OBJECT_ID":"1986-046B","EPOCH":"2026-03-12T07:11:13.529760","MEAN_MOTION":14.85593292,"ECCENTRICITY":0.00221282,"INCLINATION":82.4782,"RA_OF_ASC_NODE":77.7149,"ARG_OF_PERICENTER":216.33,"MEAN_ANOMALY":143.6415,"EPHEMERIS_TYPE":0,"CLASSIFICATION_TYPE":"U","NORAD_CAT_ID":16792,"ELEMENT_SET_NO":999,"REV_AT_EPOCH":12679,"BSTAR":6.5487732e-5,"MEAN_MOTION_DOT":5.93e-6,"MEAN_MOTION_DDOT":0},{"OBJECT_NAME":"SL-14 R/B","OBJECT_ID":"1986-055B","EPOCH":"2026-03-12T05:28:29.307072","MEAN_MOTION":14.85645237,"ECCENTRICITY":0.00179685,"INCLINATION":82.5196,"RA_OF_ASC_NODE":124.2882,"ARG_OF_PERICENTER":327.8325,"MEAN_ANOMALY":96.3037,"EPHEMERIS_TYPE":0,"CLASSIFICATION_TYPE":"U","NORAD_CAT_ID":16882,"ELEMENT_SET_NO":999,"REV_AT_EPOCH":11974,"BSTAR":5.5590416e-5,"MEAN_MOTION_DOT":5.07e-6,"MEAN_MOTION_DDOT":0},{"OBJECT_NAME":"AJISAI (EGS)","OBJECT_ID":"1986-061A","EPOCH":"2026-03-12T06:56:51.744192","MEAN_MOTION":12.44515659,"ECCENTRICITY":0.00112786,"INCLINATION":50.0081,"RA_OF_ASC_NODE":85.3528,"ARG_OF_PERICENTER":293.7322,"MEAN_ANOMALY":154.3077,"EPHEMERIS_TYPE":0,"CLASSIFICATION_TYPE":"U","NORAD_CAT_ID":16908,"ELEMENT_SET_NO":999,"REV_AT_EPOCH":46832,"BSTAR":-3.133255e-6,"MEAN_MOTION_DOT":-9.8e-7,"MEAN_MOTION_DDOT":0},{"OBJECT_NAME":"SL-14 R/B","OBJECT_ID":"1987-024B","EPOCH":"2026-03-12T03:07:05.037888","MEAN_MOTION":14.86134375,"ECCENTRICITY":0.00167342,"INCLINATION":82.5245,"RA_OF_ASC_NODE":90.4695,"ARG_OF_PERICENTER":251.1218,"MEAN_ANOMALY":108.8185,"EPHEMERIS_TYPE":0,"CLASSIFICATION_TYPE":"U","NORAD_CAT_ID":17567,"ELEMENT_SET_NO":999,"REV_AT_EPOCH":8849,"BSTAR":5.4415109e-5,"MEAN_MOTION_DOT":5.02e-6,"MEAN_MOTION_DDOT":0},{"OBJECT_NAME":"COSMOS 1833","OBJECT_ID":"1987-027A","EPOCH":"2026-03-12T03:00:47.122560","MEAN_MOTION":14.13054205,"ECCENTRICITY":0.002415,"INCLINATION":70.9219,"RA_OF_ASC_NODE":320.8998,"ARG_OF_PERICENTER":211.1193,"MEAN_ANOMALY":148.8499,"EPHEMERIS_TYPE":0,"CLASSIFICATION_TYPE":"U","NORAD_CAT_ID":17589,"ELEMENT_SET_NO":999,"REV_AT_EPOCH":1066,"BSTAR":-7.5331763e-5,"MEAN_MOTION_DOT":-1.89e-6,"MEAN_MOTION_DDOT":0},{"OBJECT_NAME":"SL-16 R/B","OBJECT_ID":"1987-027B","EPOCH":"2026-03-12T07:17:38.027040","MEAN_MOTION":14.1716644,"ECCENTRICITY":0.00032578,"INCLINATION":70.9996,"RA_OF_ASC_NODE":270.9859,"ARG_OF_PERICENTER":137.4369,"MEAN_ANOMALY":222.7008,"EPHEMERIS_TYPE":0,"CLASSIFICATION_TYPE":"U","NORAD_CAT_ID":17590,"ELEMENT_SET_NO":999,"REV_AT_EPOCH":1571,"BSTAR":3.7203538e-5,"MEAN_MOTION_DOT":2.7e-7,"MEAN_MOTION_DDOT":0},{"OBJECT_NAME":"SL-14 R/B","OBJECT_ID":"1987-038B","EPOCH":"2026-03-12T03:01:39.328896","MEAN_MOTION":14.8537168,"ECCENTRICITY":0.00198689,"INCLINATION":82.4996,"RA_OF_ASC_NODE":294.5124,"ARG_OF_PERICENTER":152.6537,"MEAN_ANOMALY":207.573,"EPHEMERIS_TYPE":0,"CLASSIFICATION_TYPE":"U","NORAD_CAT_ID":17912,"ELEMENT_SET_NO":999,"REV_AT_EPOCH":7959,"BSTAR":5.453717e-5,"MEAN_MOTION_DOT":4.95e-6,"MEAN_MOTION_DDOT":0},{"OBJECT_NAME":"COSMOS 1844","OBJECT_ID":"1987-041A","EPOCH":"2026-03-12T07:11:22.064352","MEAN_MOTION":14.14551736,"ECCENTRICITY":0.00301622,"INCLINATION":70.9001,"RA_OF_ASC_NODE":28.6699,"ARG_OF_PERICENTER":13.9614,"MEAN_ANOMALY":346.2335,"EPHEMERIS_TYPE":0,"CLASSIFICATION_TYPE":"U","NORAD_CAT_ID":17973,"ELEMENT_SET_NO":999,"REV_AT_EPOCH":395,"BSTAR":-3.7886308e-5,"MEAN_MOTION_DOT":-1.21e-6,"MEAN_MOTION_DDOT":0},{"OBJECT_NAME":"SL-14 R/B","OBJECT_ID":"1987-055B","EPOCH":"2026-03-12T05:41:46.386816","MEAN_MOTION":14.85632925,"ECCENTRICITY":0.00209506,"INCLINATION":82.5031,"RA_OF_ASC_NODE":346.6311,"ARG_OF_PERICENTER":9.5666,"MEAN_ANOMALY":350.5944,"EPHEMERIS_TYPE":0,"CLASSIFICATION_TYPE":"U","NORAD_CAT_ID":18153,"ELEMENT_SET_NO":999,"REV_AT_EPOCH":7031,"BSTAR":7.2356921e-5,"MEAN_MOTION_DOT":6.53e-6,"MEAN_MOTION_DDOT":0},{"OBJECT_NAME":"COSMOS 1867","OBJECT_ID":"1987-060A","EPOCH":"2026-03-12T00:37:39.206208","MEAN_MOTION":14.31503439,"ECCENTRICITY":0.00145201,"INCLINATION":65.0109,"RA_OF_ASC_NODE":300.1626,"ARG_OF_PERICENTER":278.8175,"MEAN_ANOMALY":81.1265,"EPHEMERIS_TYPE":0,"CLASSIFICATION_TYPE":"U","NORAD_CAT_ID":18187,"ELEMENT_SET_NO":999,"REV_AT_EPOCH":2027,"BSTAR":2.6030475e-5,"MEAN_MOTION_DOT":-3.1e-7,"MEAN_MOTION_DDOT":0},{"OBJECT_NAME":"SL-14 R/B","OBJECT_ID":"1988-001B","EPOCH":"2026-03-12T07:12:16.472160","MEAN_MOTION":14.85531575,"ECCENTRICITY":0.00169896,"INCLINATION":82.5156,"RA_OF_ASC_NODE":192.9053,"ARG_OF_PERICENTER":226.4975,"MEAN_ANOMALY":133.483,"EPHEMERIS_TYPE":0,"CLASSIFICATION_TYPE":"U","NORAD_CAT_ID":18749,"ELEMENT_SET_NO":999,"REV_AT_EPOCH":4241,"BSTAR":7.8267508e-5,"MEAN_MOTION_DOT":7.01e-6,"MEAN_MOTION_DDOT":0},{"OBJECT_NAME":"COSMOS 1933","OBJECT_ID":"1988-020A","EPOCH":"2026-03-11T23:10:12.478944","MEAN_MOTION":15.18007342,"ECCENTRICITY":0.00041306,"INCLINATION":82.5104,"RA_OF_ASC_NODE":248.6596,"ARG_OF_PERICENTER":173.7359,"MEAN_ANOMALY":186.3927,"EPHEMERIS_TYPE":0,"CLASSIFICATION_TYPE":"U","NORAD_CAT_ID":18958,"ELEMENT_SET_NO":999,"REV_AT_EPOCH":5057,"BSTAR":0.00025936298,"MEAN_MOTION_DOT":5.303e-5,"MEAN_MOTION_DDOT":0},{"OBJECT_NAME":"SL-3 R/B","OBJECT_ID":"1988-032B","EPOCH":"2026-03-12T05:37:21.288288","MEAN_MOTION":15.19942924,"ECCENTRICITY":0.00246223,"INCLINATION":97.5195,"RA_OF_ASC_NODE":54.4764,"ARG_OF_PERICENTER":222.0952,"MEAN_ANOMALY":137.8392,"EPHEMERIS_TYPE":0,"CLASSIFICATION_TYPE":"U","NORAD_CAT_ID":19046,"ELEMENT_SET_NO":999,"REV_AT_EPOCH":5249,"BSTAR":0.0002944432,"MEAN_MOTION_DOT":6.311e-5,"MEAN_MOTION_DDOT":0},{"OBJECT_NAME":"SL-16 R/B","OBJECT_ID":"1988-039B","EPOCH":"2026-03-12T07:20:01.688640","MEAN_MOTION":14.19615866,"ECCENTRICITY":0.00229321,"INCLINATION":71.0137,"RA_OF_ASC_NODE":63.0157,"ARG_OF_PERICENTER":330.5781,"MEAN_ANOMALY":29.4051,"EPHEMERIS_TYPE":0,"CLASSIFICATION_TYPE":"U","NORAD_CAT_ID":19120,"ELEMENT_SET_NO":999,"REV_AT_EPOCH":95875,"BSTAR":7.676968e-5,"MEAN_MOTION_DOT":1.14e-6,"MEAN_MOTION_DDOT":0},{"OBJECT_NAME":"COSMOS 1953","OBJECT_ID":"1988-050A","EPOCH":"2026-03-12T07:25:52.590144","MEAN_MOTION":15.28576123,"ECCENTRICITY":0.00125425,"INCLINATION":82.5102,"RA_OF_ASC_NODE":155.6127,"ARG_OF_PERICENTER":114.4018,"MEAN_ANOMALY":245.8532,"EPHEMERIS_TYPE":0,"CLASSIFICATION_TYPE":"U","NORAD_CAT_ID":19210,"ELEMENT_SET_NO":999,"REV_AT_EPOCH":3818,"BSTAR":0.0003162974,"MEAN_MOTION_DOT":8.844e-5,"MEAN_MOTION_DDOT":0}]
